IRIDIUM 159             
1 43578U 18061K   24170.61359181  .00000118  00000+0  35120-4 0  9995
2 43578  86.3970   1.1856 0002152  81.5751 278.5688 14.34218662308956
IRIDIUM 180             
1 43922U 19002A   24170.82239537 -.00000005  00000+0 -88314-5 0  9990
2 43922  86.3960 297.9773 0002084  91.9780 268.1654 14.34217639284631
IRIDIUM 176             
1 43923U 19002B   24170.61314388  .00001325  00000+0  20616-3 0  9999
2 43923  86.6086 298.0864 0002424  88.3433 271.8061 14.72256347292059
IRIDIUM 168             
1 43924U 19002C   24170.60674671  .00000173  00000+0  54741-4 0  9990
2 43924  86.3962 298.1244 0002293  93.1222 267.0236 14.34217711284543
IRIDIUM 173             
1 43925U 19002D   24170.59406218  .00000085  00000+0  23152-4 0  9993
2 43925  86.3956 298.0483 0002136  90.5826 269.5614 14.34217565284520
IRIDIUM 169             
1 43926U 19002E   24170.58616261  .00000472  00000+0  14779-3 0  9998
2 43926  86.4222 329.6790 0001510 157.9563 202.1700 14.38606028285475
IRIDIUM 172             
1 43927U 19002F   24170.58771941  .00000060  00000+0  14246-4 0  9999
2 43927  86.3958 298.0567 0002226  90.8573 269.2878 14.34217972284531
IRIDIUM 175             
1 43928U 19002G   24170.81134967  .00001339  00000+0  20842-3 0  9995
2 43928  86.1514 271.0490 0002044  99.0061 261.1387 14.72231345292071
